OSCAR 7 (AO-7)          
1 07530U 74089B   26160.00270654 -.00000035  00000+0  70926-4 0  9998
2 07530 101.9901 173.1638 0012492 145.3825 271.9948 12.53697945359494
PHASE 3B (AO-10)        
1 14129U 83058B   26158.17238870 -.00000194  00000+0  00000+0 0  9992
2 14129  25.9048 221.2242 6014266 112.9115 319.2048  2.05872980295281
UOSAT 2 (UO-11)         
1 14781U 84021B   26160.16689561  .00001121  00000+0  11978-3 0  9996
2 14781  97.8054 125.8314 0006887 199.5378 160.5577 14.90763358255932
LUSAT (LO-19)           
1 20442U 90005G   26160.08878594  .00000100  00000+0  52389-4 0  9991
2 20442  98.8852 181.6710 0010710 226.2681 133.7616 14.34120668901231
EYESAT A (AO-27)        
1 22825U 93061C   26160.09847171  .00000074  00000+0  45187-4 0  9999
2 22825  98.6881 227.5146 0009411 120.7072 239.5039 14.30940069705843
ITAMSAT (IO-26)         
1 22826U 93061D   26159.94049014  .00000092  00000+0  51394-4 0  9999
2 22826  98.6829 227.2733 0010049 106.4244 253.8044 14.31366725706136
RADIO ROSTO (RS15)      
1 23439U 94085A   26160.13396352 -.00000035  00000+0  20284-3 0  9991
2 23439  64.8186 316.2407 0155702   5.3648 354.8901 11.27583633294997
JAS-2 (FO-29)           
1 24278U 96046B   26160.10433693 -.00000009  00000+0  23943-4 0  9996
2 24278  98.5248  10.0837 0350777 117.3510 246.3789 13.53273744472075
TECHSAT 1B (GO-32)      
1 25397U 98043D   26159.91619811  .00000065  00000+0  48402-4 0  9991
2 25397  99.0065 152.4663 0000582 185.4157 174.7015 14.24426823450156
ISS (ZARYA)             
1 25544U 98067A   26160.19103139  .00006847  00000+0  12924-3 0  9997
2 25544  51.6332 339.6717 0006890 149.5560 210.5830 15.49678250570515
PCSAT (NO-44)           
1 26931U 01043C   26159.98739706  .00000092  00000+0  65089-4 0  9993
2 26931  67.0512 265.4797 0006111 264.3039  95.7366 14.31953167289274
SAUDISAT 1C (SO-50)     
1 27607U 02058C   26160.19823941  .00000928  00000+0  12675-3 0  9991
2 27607  64.5504 153.7028 0075439 263.9457  95.3049 14.83029182263276
CUTE-1 (CO-55)          
1 27844U 03031E   26159.88839157  .00000286  00000+0  14250-3 0  9994
2 27844  98.6735 168.5516 0008985 202.7480 157.3302 14.24330680190495
CUBESAT XI-IV (CO-57)   
1 27848U 03031J   26160.01325553  .00000222  00000+0  11652-3 0  9998
2 27848  98.6766 168.3941 0008561 222.5153 137.5363 14.23616414190218
MOZHAETS 4 (RS22)       
1 27939U 03042A   26160.20411591  .00000476  00000+0  81624-4 0  9998
2 27939  98.3474 344.3377 0010199 298.5540 149.9312 14.73452037214373
CUBESAT XI-V            
1 28895U 05043F   26158.95798337  .00001615  00000+0  26180-3 0  9999
2 28895  98.2976 314.3867 0013088 231.5140 128.4894 14.72607812100390
CUTE-1.7+APD II (CO-65) 
1 32785U 08021C   26160.22741874  .00005125  00000+0  32464-3 0  9990
2 32785  97.8272 141.4808 0010342  62.0877 298.1398 15.09376314983995
SEEDS II (CO-66)        
1 32791U 08021J   26159.97434669  .00017316  00000+0  55427-3 0  9997
2 32791  97.7521 157.4812 0002329  29.1671 330.9700 15.32470622986035
YUBILEINY (RS30)        
1 32953U 08025A   26160.21161388  .00000044  00000+0  24475-3 0  9994
2 32953  82.5048   0.4023 0019206 331.8789  28.1252 12.43178980818704
KKS-1 (KISEKI)          
1 33499U 09002H   26160.16060690  .00001256  00000+0  16104-3 0  9990
2 33499  98.1193  82.4758 0007012 326.0486  34.0277 14.83103187935000
SWISSCUBE               
1 35932U 09051B   26159.00067640  .00001155  00000+0  23775-3 0  9991
2 35932  98.4042  66.7288 0005474 236.3791 123.6888 14.62465103887819
BEESAT-1                
1 35933U 09051C   26160.16905242  .00000747  00000+0  15973-3 0  9997
2 35933  98.3972  67.5698 0003910 248.9376 111.1406 14.61707455888015
ITUPSAT1                
1 35935U 09051E   26158.98819542  .00000873  00000+0  19037-3 0  9998
2 35935  98.4056  65.5723 0006074 268.4530  91.5974 14.60427678887397
XIWANG-1 (HOPE-1)       
1 36122U 09072B   26160.18797519 -.00000280  00000+0 -61562-3 0  9998
2 36122 100.4025 114.1480 0006806 252.0123 108.0249 13.16438193791956
O/OREOS (USA 219)       
1 37224U 10062C   26160.09273788  .00002075  00000+0  20169-3 0  9990
2 37224  71.9703  98.6734 0012381  80.7917 279.4653 14.93709289115433
JUGNU                   
1 37839U 11058B   26159.89272485  .00000420  00000+0  79653-4 0  9992
2 37839  19.9622 358.8183 0018531 344.9101  52.3986 14.13774614757850
SRMSAT                  
1 37841U 11058D   26160.15553420  .00000360  00000+0  51544-4 0  9999
2 37841  19.9710 108.0810 0011941 115.7185 272.7432 14.11573862756681
STRAND-1                
1 39090U 13009E   26159.77100359  .00000307  00000+0  11756-3 0  9991
2 39090  98.3921 340.2126 0007427 254.1198 105.9170 14.37158481695851
ZACUBE-1 (TSHEPISOSAT)  
1 39417U 13066B   26160.14189494  .00002997  00000+0  23503-3 0  9997
2 39417  97.8092 122.4351 0040054 275.9917  83.6743 15.01137906679525
GOMX-1                  
1 39430U 13066Q   26160.15085105  .00001768  00000+0  26975-3 0  9998
2 39430  97.6492   1.1205 0130109 103.0484 258.5284 14.69429927668738
